ORBCOMM-X               
1 21576U 91050C   25237.14943623  .00000261  00000+0  90232-4 0  9995
2 21576  98.3383 302.3283 0003258 358.8729   1.2454 14.43305534792060
ORBCOMM FM01            
1 23545U 95017A   25237.46305253  .00004246  00000+0  44023-3 0  9999
2 23545  69.9607 261.3035 0005348 243.6870 116.3736 14.90721288622838
ORBCOMM FM02            
1 23546U 95017B   25237.56370977  .00005455  00000+0  54863-3 0  9992
2 23546  69.9631 280.2042 0006461 237.6804 122.3726 14.91753334622509
ORBCOMM FM08            
1 25112U 97084A   25237.48171483  .00001375  00000+0  42252-3 0  9997
2 25112  45.0151  35.1743 0006791 230.2157 129.8097 14.45991300451401
ORBCOMM FM10            
1 25113U 97084B   25237.40408283  .00001103  00000+0  34857-3 0  9992
2 25113  45.0162  38.0501 0005639 197.3945 162.6714 14.45767908626530
ORBCOMM FM11            
1 25114U 97084C   25237.48976255  .00001280  00000+0  40010-3 0  9994
2 25114  45.0147  38.3980 0006421 200.0533 160.0067 14.45518598451508
ORBCOMM FM12            
1 25115U 97084D   25237.58945444  .00001159  00000+0  36597-3 0  9992
2 25115  45.0155  37.6625 0005522 196.7255 163.3415 14.45538352451311
ORBCOMM FM09            
1 25116U 97084E   25237.55870875  .00001084  00000+0  34585-3 0  9997
2 25116  45.0157  38.8127 0006817 188.7554 171.3179 14.45408350451517
